start=new Date('2022-08-20T00:00:00.000Z').valueOf();
sats=[{"ARG_OF_PERICENTER":"60.8352","PERIAPSIS":"538.541","SITE":"AFETR","FILE":"3540441","EPOCH":"2022-08-19T22:00:00.999936","ELEMENT_SET_NO":"999","REF_FRAME":"TEME","MEAN_MOTION":"15.08822585","OBJECT_NAME":"STARLINK-3644","REV_AT_EPOCH":"2623","LAUNCH_DATE":"2022-03-09","GP_ID":"210520062","MEAN_ANOMALY":"176.9631","MEAN_MOTION_DOT":"-0.00006148","CENTER_NAME":"EARTH","CLASSIFICATION_TYPE":"U","MEAN_MOTION_DDOT":"0.0000000000000","SEMIMAJOR_AXIS":"6917.934","ECCENTRICITY":"0.00018180","COUNTRY_CODE":"US","RCS_SIZE":"LARGE","NORAD_CAT_ID":"51987","BSTAR":"-0.00036866000000","TLE_LINE1":"1 51987U 22025AH  22231.91667824 -.00006148  00000-0 -36866-3 0  9997","TIME_SYSTEM":"UTC","MEAN_ELEMENT_THEORY":"SGP4","TLE_LINE2":"2 51987  53.2176 105.0467 0001818  60.8352 176.9631 15.08822585 26231","EPHEMERIS_TYPE":"0","RA_OF_ASC_NODE":"105.0467","OBJECT_ID":"2022-025AH","INCLINATION":"53.2176","PERIOD":"95.439","DECAY_DATE":null,"APOAPSIS":"541.056","OBJECT_TYPE":"PAYLOAD"},{"OBJECT_TYPE":"PAYLOAD","PERIOD":"95.438","APOAPSIS":"540.978","DECAY_DATE":null,"INCLINATION":"53.2173","RA_OF_ASC_NODE":"105.0495","EPHEMERIS_TYPE":"0","OBJECT_ID":"2022-025AJ","TLE_LINE2":"2 51988  53.2173 105.0495 0001726  56.6889 281.1148 15.08827357  1301","MEAN_ELEMENT_THEORY":"SGP4","TIME_SYSTEM":"UTC","RCS_SIZE":"LARGE","NORAD_CAT_ID":"51988","TLE_LINE1":"1 51988U 22025AJ  22231.91667824 -.00008429  00000-0 -51230-3 0  9994","BSTAR":"-0.00051230000000","COUNTRY_CODE":"US","ECCENTRICITY":"0.00017260","MEAN_MOTION_DDOT":"0.0000000000000","SEMIMAJOR_AXIS":"6917.919","CLASSIFICATION_TYPE":"U","CENTER_NAME":"EARTH","MEAN_MOTION_DOT":"-0.00008429","LAUNCH_DATE":"2022-03-09","OBJECT_NAME":"STARLINK-3640","REV_AT_EPOCH":"130","MEAN_ANOMALY":"281.1148","GP_ID":"210548649","ELEMENT_SET_NO":"999","REF_FRAME":"TEME","MEAN_MOTION":"15.08827357","SITE":"AFETR","FILE":"3540705","EPOCH":"2022-08-19T22:00:00.999936","ARG_OF_PERICENTER":"56.6889","PERIAPSIS":"538.590"},{"MEAN_MOTION_DDOT":"0.0000000000000","SEMIMAJOR_AXIS":"6917.960","CENTER_NAME":"EARTH","CLASSIFICATION_TYPE":"U","MEAN_MOTION_DOT":"-0.00006471","OBJECT_NAME":"STARLINK-3642","REV_AT_EPOCH":"2624","LAUNCH_DATE":"2022-03-09","MEAN_ANOMALY":"204.2370","GP_ID":"210519889","ELEMENT_SET_NO":"999","REF_FRAME":"TEME","MEAN_MOTION":"15.08814084","FILE":"3540441","SITE":"AFETR","EPOCH":"2022-08-19T22:00:00.999936","ARG_OF_PERICENTER":"53.5469","PERIAPSIS":"538.676","OBJECT_TYPE":"PAYLOAD","PERIOD":"95.439","DECAY_DATE":null,"APOAPSIS":"540.973","INCLINATION":"53.2181","RA_OF_ASC_NODE":"105.0521","EPHEMERIS_TYPE":"0","OBJECT_ID":"2022-025AK","TIME_SYSTEM":"UTC","MEAN_ELEMENT_THEORY":"SGP4","TLE_LINE2":"2 51989  53.2181 105.0521 0001660  53.5469 204.2370 15.08814084 26244","RCS_SIZE":"LARGE","NORAD_CAT_ID":"51989","TLE_LINE1":"1 51989U 22025AK  22231.91667824 -.00006471  00000-0 -38913-3 0  9993","BSTAR":"-0.00038913000000","ECCENTRICITY":"0.00016600","COUNTRY_CODE":"US"},{"SEMIMAJOR_AXIS":"6917.939","MEAN_MOTION_DDOT":"0.0000000000000","CLASSIFICATION_TYPE":"U","CENTER_NAME":"EARTH","MEAN_MOTION_DOT":"0.00001784","GP_ID":"210548147","MEAN_ANOMALY":"342.9506","LAUNCH_DATE":"2022-03-09","REV_AT_EPOCH":"130","OBJECT_NAME":"STARLINK-3657","MEAN_MOTION":"15.08820787","ELEMENT_SET_NO":"999","REF_FRAME":"TEME","EPOCH":"2022-08-19T22:00:00.999936","SITE":"AFETR","FILE":"3540705","PERIAPSIS":"538.820","ARG_OF_PERICENTER":"84.8272","OBJECT_TYPE":"PAYLOAD","APOAPSIS":"540.788","DECAY_DATE":null,"PERIOD":"95.439","INCLINATION":"53.2160","OBJECT_ID":"2022-025AL","RA_OF_ASC_NODE":"85.0470","EPHEMERIS_TYPE":"0","TLE_LINE2":"2 51990  53.2160  85.0470 0001422  84.8272 342.9506 15.08820787  1306","MEAN_ELEMENT_THEORY":"SGP4","TIME_SYSTEM":"UTC","BSTAR":"0.00013022000000","TLE_LINE1":"1 51990U 22025AL  22231.91667824  .00001784  00000-0  13022-3 0  9999","NORAD_CAT_ID":"51990","RCS_SIZE":"LARGE","COUNTRY_CODE":"US","ECCENTRICITY":"0.00014220"},{"EPOCH":"2022-08-19T22:00:00.999936","SITE":"AFETR","FILE":"3540705","PERIAPSIS":"538.441","ARG_OF_PERICENTER":"56.0928","GP_ID":"210547898","MEAN_ANOMALY":"241.6996","OBJECT_NAME":"STARLINK-3652","REV_AT_EPOCH":"130","LAUNCH_DATE":"2022-03-09","MEAN_MOTION":"15.08818214","REF_FRAME":"TEME","ELEMENT_SET_NO":"999","CENTER_NAME":"EARTH","CLASSIFICATION_TYPE":"U","MEAN_MOTION_DOT":"-0.00007424","SEMIMAJOR_AXIS":"6917.947","MEAN_MOTION_DDOT":"0.0000000000000","ECCENTRICITY":"0.00019820","COUNTRY_CODE":"US","TIME_SYSTEM":"UTC","TLE_LINE2":"2 51991  53.2184 105.0548 0001982  56.0928 241.6996 15.08818214  1302","MEAN_ELEMENT_THEORY":"SGP4","TLE_LINE1":"1 51991U 22025AM  22231.91667824 -.00007424  00000-0 -44907-3 0  9995","BSTAR":"-0.00044907000000","RCS_SIZE":"LARGE","NORAD_CAT_ID":"51991","INCLINATION":"53.2184","OBJECT_ID":"2022-025AM","RA_OF_ASC_NODE":"105.0548","EPHEMERIS_TYPE":"0","OBJECT_TYPE":"PAYLOAD","DECAY_DATE":null,"APOAPSIS":"541.183","PERIOD":"95.439"},{"EPOCH":"2022-08-19T22:00:00.999936","FILE":"3540705","SITE":"AFETR","PERIAPSIS":"538.675","ARG_OF_PERICENTER":"61.8913","GP_ID":"210549149","MEAN_ANOMALY":"65.8864","LAUNCH_DATE":"2022-03-09","OBJECT_NAME":"STARLINK-3643","REV_AT_EPOCH":"130","MEAN_MOTION":"15.08821243","REF_FRAME":"TEME","ELEMENT_SET_NO":"999","CLASSIFICATION_TYPE":"U","CENTER_NAME":"EARTH","MEAN_MOTION_DOT":"-0.00007216","SEMIMAJOR_AXIS":"6917.938","MEAN_MOTION_DDOT":"0.0000000000000","COUNTRY_CODE":"US","ECCENTRICITY":"0.00016300","TLE_LINE2":"2 51992  53.2170  85.0552 0001630  61.8913  65.8864 15.08821243  1304","MEAN_ELEMENT_THEORY":"SGP4","TIME_SYSTEM":"UTC","BSTAR":"-0.00043593000000","TLE_LINE1":"1 51992U 22025AN  22231.91667824 -.00007216  00000-0 -43593-3 0  9995","RCS_SIZE":"LARGE","NORAD_CAT_ID":"51992","INCLINATION":"53.2170","OBJECT_ID":"2022-025AN","RA_OF_ASC_NODE":"85.0552","EPHEMERIS_TYPE":"0","OBJECT_TYPE":"PAYLOAD","APOAPSIS":"540.930","DECAY_DATE":null,"PERIOD":"95.439"},{"REV_AT_EPOCH":"2625","OBJECT_NAME":"STARLINK-3648","LAUNCH_DATE":"2022-03-09","GP_ID":"210520080","MEAN_ANOMALY":"289.4182","ELEMENT_SET_NO":"999","REF_FRAME":"TEME","MEAN_MOTION":"15.08845935","SITE":"AFETR","FILE":"3540442","EPOCH":"2022-08-19T22:00:00.999936","ARG_OF_PERICENTER":"68.3415","PERIAPSIS":"538.616","MEAN_MOTION_DDOT":"0.0000000000000","SEMIMAJOR_AXIS":"6917.862","CENTER_NAME":"EARTH","CLASSIFICATION_TYPE":"U","MEAN_MOTION_DOT":"-0.00023446","TIME_SYSTEM":"UTC","TLE_LINE2":"2 51993  53.2177 105.0588 0001607  68.3415 289.4182 15.08845935 26259","MEAN_ELEMENT_THEORY":"SGP4","NORAD_CAT_ID":"51993","RCS_SIZE":"LARGE","TLE_LINE1":"1 51993U 22025AP  22231.91667824 -.00023446  00000-0 -14596-2 0  9999","BSTAR":"-0.00145960000000","ECCENTRICITY":"0.00016070","COUNTRY_CODE":"US","OBJECT_TYPE":"PAYLOAD","PERIOD":"95.437","DECAY_DATE":null,"APOAPSIS":"540.839","INCLINATION":"53.2177","EPHEMERIS_TYPE":"0","RA_OF_ASC_NODE":"105.0588","OBJECT_ID":"2022-025AP"},{"MEAN_ELEMENT_THEORY":"SGP4","TLE_LINE2":"2 51994  53.2171  85.0552 0001625  62.4790  85.2779 15.08838129  1303","TIME_SYSTEM":"UTC","TLE_LINE1":"1 51994U 22025AQ  22231.91667824 -.00007637  00000-0 -46226-3 0  9990","BSTAR":"-0.00046226000000","RCS_SIZE":"LARGE","NORAD_CAT_ID":"51994","COUNTRY_CODE":"US","ECCENTRICITY":"0.00016250","OBJECT_TYPE":"PAYLOAD","APOAPSIS":"540.875","DECAY_DATE":null,"PERIOD":"95.438","INCLINATION":"53.2171","OBJECT_ID":"2022-025AQ","EPHEMERIS_TYPE":"0","RA_OF_ASC_NODE":"85.0552","GP_ID":"210547648","MEAN_ANOMALY":"85.2779","LAUNCH_DATE":"2022-03-09","OBJECT_NAME":"STARLINK-3647","REV_AT_EPOCH":"130","MEAN_MOTION":"15.08838129","ELEMENT_SET_NO":"999","REF_FRAME":"TEME","EPOCH":"2022-08-19T22:00:00.999936","FILE":"3540705","SITE":"AFETR","PERIAPSIS":"538.627","ARG_OF_PERICENTER":"62.4790","SEMIMAJOR_AXIS":"6917.886","MEAN_MOTION_DDOT":"0.0000000000000","CLASSIFICATION_TYPE":"U","CENTER_NAME":"EARTH","MEAN_MOTION_DOT":"-0.00007637"},{"EPOCH":"2022-08-19T22:00:00.999936","SITE":"AFETR","FILE":"3540705","PERIAPSIS":"538.886","ARG_OF_PERICENTER":"74.0206","MEAN_ANOMALY":"13.7610","GP_ID":"210548398","LAUNCH_DATE":"2022-03-09","REV_AT_EPOCH":"130","OBJECT_NAME":"STARLINK-3636","MEAN_MOTION":"15.08811555","ELEMENT_SET_NO":"999","REF_FRAME":"TEME","CLASSIFICATION_TYPE":"U","CENTER_NAME":"EARTH","MEAN_MOTION_DOT":"0.00001938","SEMIMAJOR_AXIS":"6917.967","MEAN_MOTION_DDOT":"0.0000000000000","COUNTRY_CODE":"US","ECCENTRICITY":"0.00013680","TLE_LINE2":"2 51995  53.2161  85.0471 0001368  74.0206  13.7610 15.08811555  1302","MEAN_ELEMENT_THEORY":"SGP4","TIME_SYSTEM":"UTC","BSTAR":"0.00013994000000","TLE_LINE1":"1 51995U 22025AR  22231.91667824  .00001938  00000-0  13994-3 0  9993","RCS_SIZE":"LARGE","NORAD_CAT_ID":"51995","INCLINATION":"53.2161","OBJECT_ID":"2022-025AR","EPHEMERIS_TYPE":"0","RA_OF_ASC_NODE":"85.0471","OBJECT_TYPE":"PAYLOAD","APOAPSIS":"540.779","DECAY_DATE":null,"PERIOD":"95.439"},{"EPOCH":"2022-08-19T22:00:00.999936","FILE":"3540705","SITE":"AFETR","PERIAPSIS":"538.810","ARG_OF_PERICENTER":"76.1063","GP_ID":"210548650","MEAN_ANOMALY":"91.6857","LAUNCH_DATE":"2022-03-09","REV_AT_EPOCH":"130","OBJECT_NAME":"STARLINK-3538","MEAN_MOTION":"15.08810927","REF_FRAME":"TEME","ELEMENT_SET_NO":"999","CLASSIFICATION_TYPE":"U","CENTER_NAME":"EARTH","MEAN_MOTION_DOT":"0.00005335","SEMIMAJOR_AXIS":"6917.969","MEAN_MOTION_DDOT":"0.0000000000000","COUNTRY_CODE":"US","ECCENTRICITY":"0.00014800","MEAN_ELEMENT_THEORY":"SGP4","TLE_LINE2":"2 51996  53.2171  85.0548 0001480  76.1063  91.6857 15.08810927  1308","TIME_SYSTEM":"UTC","BSTAR":"0.00035330000000","TLE_LINE1":"1 51996U 22025AS  22231.91667824  .00005335  00000-0  35330-3 0  9997","RCS_SIZE":"LARGE","NORAD_CAT_ID":"51996","INCLINATION":"53.2171","OBJECT_ID":"2022-025AS","EPHEMERIS_TYPE":"0","RA_OF_ASC_NODE":"85.0548","OBJECT_TYPE":"PAYLOAD","APOAPSIS":"540.858","DECAY_DATE":null,"PERIOD":"95.439"}];
